{
  "type": "FeatureCollection",
  "name": "rivers",
  "crs": {
    "type": "name",
    "properties": {
      "name": "urn:ogc:def:crs:OGC:1.3:CRS84"
    }
  },
  "features": [
    {
      "type": "Feature",
      "properties": {
        "id": "r-001",
        "name": "Periyar River",
        "waterway": "river"
      },
      "geometry": {
        "type": "LineString",
        "coordinates": [
          [
            76.982,
            10.052
          ],
          [
            76.974,
            10.051
          ],
          [
            76.95,
            10.06
          ],
          [
            76.92,
            10.075
          ],
          [
            76.885,
            10.091
          ],
          [
            76.84,
            10.115
          ]
        ]
      }
    }
  ]
}