{
  "type": "FeatureCollection",
  "name": "dam",
  "crs": {
    "type": "name",
    "properties": {
      "name": "urn:ogc:def:crs:OGC:1.3:CRS84"
    }
  },
  "features": [
    {
      "type": "Feature",
      "properties": {
        "id": "dam-rasuwagadhi-001",
        "name": "Rasuwagadhi Dam & Lhende Khola Barrier Lake",
        "river": "Bhote Koshi / Trishuli River",
        "dam_type": "Run-of-River Hydro & Landslide Barrier Lake",
        "height_m": 45.0,
        "length_m": 120.0,
        "storage_capacity_mm3": 24.5
      },
      "geometry": {
        "type": "Point",
        "coordinates": [
          85.385,
          28.275
        ]
      }
    }
  ]
}