{
  "type": "FeatureCollection",
  "name": "roads",
  "crs": {
    "type": "name",
    "properties": {
      "name": "urn:ogc:def:crs:OGC:1.3:CRS84"
    }
  },
  "features": [
    {
      "type": "Feature",
      "properties": {
        "id": "rd-001",
        "name": "NH 185 (Kattappana - Adimali Road)",
        "highway": "primary"
      },
      "geometry": {
        "type": "LineString",
        "coordinates": [
          [
            76.981,
            10.038
          ],
          [
            76.974,
            10.051
          ],
          [
            76.953,
            10.104
          ]
        ]
      }
    }
  ]
}