{
  "type": "FeatureCollection",
  "name": "villages",
  "crs": {
    "type": "name",
    "properties": {
      "name": "urn:ogc:def:crs:OGC:1.3:CRS84"
    }
  },
  "features": [
    {
      "type": "Feature",
      "properties": {
        "id": "v-001",
        "name": "Cheruthoni",
        "district": "Idukki",
        "population": 8450,
        "asset_type": "village"
      },
      "geometry": {
        "type": "Point",
        "coordinates": [
          76.974,
          10.051
        ]
      }
    },
    {
      "type": "Feature",
      "properties": {
        "id": "v-002",
        "name": "Painavu",
        "district": "Idukki",
        "population": 4200,
        "asset_type": "village"
      },
      "geometry": {
        "type": "Point",
        "coordinates": [
          76.981,
          10.038
        ]
      }
    },
    {
      "type": "Feature",
      "properties": {
        "id": "v-003",
        "name": "Vazhathope",
        "district": "Idukki",
        "population": 6100,
        "asset_type": "village"
      },
      "geometry": {
        "type": "Point",
        "coordinates": [
          76.962,
          10.029
        ]
      }
    },
    {
      "type": "Feature",
      "properties": {
        "id": "v-004",
        "name": "Chelachuvadu",
        "district": "Idukki",
        "population": 5300,
        "asset_type": "village"
      },
      "geometry": {
        "type": "Point",
        "coordinates": [
          76.92,
          10.075
        ]
      }
    },
    {
      "type": "Feature",
      "properties": {
        "id": "v-005",
        "name": "Lower Periyar",
        "district": "Idukki",
        "population": 3800,
        "asset_type": "village"
      },
      "geometry": {
        "type": "Point",
        "coordinates": [
          76.885,
          10.091
        ]
      }
    },
    {
      "type": "Feature",
      "properties": {
        "id": "v-006",
        "name": "Adimali",
        "district": "Idukki",
        "population": 15800,
        "asset_type": "village"
      },
      "geometry": {
        "type": "Point",
        "coordinates": [
          76.953,
          10.104
        ]
      }
    }
  ]
}